start=new Date('2023-06-09T00:00:00.000Z').valueOf();
sats=[{"ARG_OF_PERICENTER":"76.1400","RA_OF_ASC_NODE":"344.0378","NORAD_CAT_ID":"48119","MEAN_ELEMENT_THEORY":"SGP4","INCLINATION":"53.0542","OBJECT_NAME":"STARLINK-2459","MEAN_MOTION_DOT":"0.00013590","LAUNCH_DATE":"2021-04-07","TLE_LINE1":"1 48119U 21027AD  23159.50921140  .00013590  00000-0  92952-3 0  9995","ECCENTRICITY":"0.00022930","DECAY_DATE":null,"OBJECT_TYPE":"PAYLOAD","EPHEMERIS_TYPE":"0","CENTER_NAME":"EARTH","SEMIMAJOR_AXIS":"6925.352","GP_ID":"233471605","BSTAR":"0.00092952000000","SITE":"AFETR","EPOCH":"2023-06-08T12:13:15.864960","MEAN_MOTION_DDOT":"0.0000000000000","FILE":"3928007","REF_FRAME":"TEME","RCS_SIZE":"LARGE","MEAN_ANOMALY":"283.9844","MEAN_MOTION":"15.06398916","REV_AT_EPOCH":"12118","TLE_LINE2":"2 48119  53.0542 344.0378 0002293  76.1400 283.9844 15.06398916121186","PERIOD":"95.592","TIME_SYSTEM":"UTC","CLASSIFICATION_TYPE":"U","PERIAPSIS":"545.629","APOAPSIS":"548.805","COUNTRY_CODE":"US","ELEMENT_SET_NO":"999","OBJECT_ID":"2021-027AD"},{"MEAN_MOTION":"15.06427023","MEAN_ANOMALY":"283.2734","RCS_SIZE":"LARGE","REF_FRAME":"TEME","MEAN_MOTION_DDOT":"0.0000000000000","FILE":"3928097","ELEMENT_SET_NO":"999","OBJECT_ID":"2021-027AE","COUNTRY_CODE":"US","PERIAPSIS":"546.260","APOAPSIS":"548.002","CLASSIFICATION_TYPE":"U","TIME_SYSTEM":"UTC","REV_AT_EPOCH":"12052","TLE_LINE2":"2 48120  53.0553   3.7181 0001258  76.8396 283.2734 15.06427023120522","PERIOD":"95.590","SEMIMAJOR_AXIS":"6925.266","CENTER_NAME":"EARTH","EPHEMERIS_TYPE":"0","EPOCH":"2023-06-08T13:58:07.428288","SITE":"AFETR","BSTAR":"0.00035107000000","GP_ID":"233477831","TLE_LINE1":"1 48120U 21027AE  23159.58203042  .00004955  00000-0  35107-3 0  9993","LAUNCH_DATE":"2021-04-07","MEAN_MOTION_DOT":"0.00004955","OBJECT_NAME":"STARLINK-2460","INCLINATION":"53.0553","OBJECT_TYPE":"PAYLOAD","ECCENTRICITY":"0.00012580","DECAY_DATE":null,"ARG_OF_PERICENTER":"76.8396","MEAN_ELEMENT_THEORY":"SGP4","NORAD_CAT_ID":"48120","RA_OF_ASC_NODE":"3.7181"},{"CENTER_NAME":"EARTH","EPHEMERIS_TYPE":"0","SEMIMAJOR_AXIS":"6925.246","GP_ID":"233471106","SITE":"AFETR","EPOCH":"2023-06-07T22:57:06.813504","BSTAR":"0.00117810000000","MEAN_MOTION_DDOT":"0.0000000000000","FILE":"3928007","REF_FRAME":"TEME","MEAN_ANOMALY":"275.3647","MEAN_MOTION":"15.06433367","RCS_SIZE":"LARGE","TIME_SYSTEM":"UTC","TLE_LINE2":"2 48121  53.0549 356.5294 0001112  84.7469 275.3647 15.06433367120961","PERIOD":"95.590","REV_AT_EPOCH":"12096","COUNTRY_CODE":"US","ELEMENT_SET_NO":"999","OBJECT_ID":"2021-027AF","CLASSIFICATION_TYPE":"U","PERIAPSIS":"546.341","APOAPSIS":"547.881","ARG_OF_PERICENTER":"84.7469","NORAD_CAT_ID":"48121","RA_OF_ASC_NODE":"356.5294","MEAN_ELEMENT_THEORY":"SGP4","OBJECT_NAME":"STARLINK-2462","INCLINATION":"53.0549","TLE_LINE1":"1 48121U 21027AF  23158.95632886  .00017326  00000-0  11781-2 0  9993","LAUNCH_DATE":"2021-04-07","MEAN_MOTION_DOT":"0.00017326","DECAY_DATE":null,"ECCENTRICITY":"0.00011120","OBJECT_TYPE":"PAYLOAD"},{"MEAN_MOTION_DDOT":"0.0000000000000","FILE":"3928007","REF_FRAME":"TEME","RCS_SIZE":"LARGE","MEAN_ANOMALY":"289.7579","MEAN_MOTION":"15.06397313","TLE_LINE2":"2 48122  53.0542 348.8292 0001637  70.3587 289.7579 15.06397313121134","PERIOD":"95.592","REV_AT_EPOCH":"12113","TIME_SYSTEM":"UTC","CLASSIFICATION_TYPE":"U","PERIAPSIS":"546.088","APOAPSIS":"548.355","COUNTRY_CODE":"US","OBJECT_ID":"2021-027AG","ELEMENT_SET_NO":"999","EPHEMERIS_TYPE":"0","CENTER_NAME":"EARTH","SEMIMAJOR_AXIS":"6925.357","GP_ID":"233471858","BSTAR":"0.00021995000000","SITE":"AFETR","EPOCH":"2023-06-08T13:14:59.214336","INCLINATION":"53.0542","OBJECT_NAME":"STARLINK-2463","MEAN_MOTION_DOT":"0.00002996","LAUNCH_DATE":"2021-04-07","TLE_LINE1":"1 48122U 21027AG  23159.55207424  .00002996  00000-0  21995-3 0  9993","ECCENTRICITY":"0.00016370","DECAY_DATE":null,"OBJECT_TYPE":"PAYLOAD","ARG_OF_PERICENTER":"70.3587","RA_OF_ASC_NODE":"348.8292","NORAD_CAT_ID":"48122","MEAN_ELEMENT_THEORY":"SGP4"},{"CENTER_NAME":"EARTH","EPHEMERIS_TYPE":"0","SEMIMAJOR_AXIS":"6925.302","GP_ID":"233472106","EPOCH":"2023-06-08T11:53:22.763904","SITE":"AFETR","BSTAR":"0.00059084000000","REF_FRAME":"TEME","FILE":"3928007","MEAN_MOTION_DDOT":"0.0000000000000","MEAN_MOTION":"15.06415262","MEAN_ANOMALY":"283.2700","RCS_SIZE":"LARGE","TIME_SYSTEM":"UTC","TLE_LINE2":"2 48123  53.0541 344.1081 0002888  76.8611 283.2700 15.06415262121192","PERIOD":"95.591","REV_AT_EPOCH":"12119","ELEMENT_SET_NO":"999","OBJECT_ID":"2021-027AH","COUNTRY_CODE":"US","PERIAPSIS":"545.167","APOAPSIS":"549.167","CLASSIFICATION_TYPE":"U","ARG_OF_PERICENTER":"76.8611","NORAD_CAT_ID":"48123","RA_OF_ASC_NODE":"344.1081","MEAN_ELEMENT_THEORY":"SGP4","OBJECT_NAME":"STARLINK-2464","INCLINATION":"53.0541","LAUNCH_DATE":"2021-04-07","TLE_LINE1":"1 48123U 21027AH  23159.49540236  .00008533  00000-0  59084-3 0  9991","MEAN_MOTION_DOT":"0.00008533","ECCENTRICITY":"0.00028880","DECAY_DATE":null,"OBJECT_TYPE":"PAYLOAD"},{"INCLINATION":"53.0546","OBJECT_NAME":"STARLINK-2465","MEAN_MOTION_DOT":"0.00014088","LAUNCH_DATE":"2021-04-07","TLE_LINE1":"1 48124U 21027AJ  23159.56083114  .00014088  00000-0  96288-3 0  9996","DECAY_DATE":null,"ECCENTRICITY":"0.00007260","OBJECT_TYPE":"PAYLOAD","ARG_OF_PERICENTER":"101.0136","RA_OF_ASC_NODE":"353.8204","NORAD_CAT_ID":"48124","MEAN_ELEMENT_THEORY":"SGP4","MEAN_MOTION_DDOT":"0.0000000000000","FILE":"3928070","REF_FRAME":"TEME","RCS_SIZE":"LARGE","MEAN_ANOMALY":"259.0934","MEAN_MOTION":"15.06396565","REV_AT_EPOCH":"12066","TLE_LINE2":"2 48124  53.0546 353.8204 0000726 101.0136 259.0934 15.06396565120669","PERIOD":"95.592","TIME_SYSTEM":"UTC","CLASSIFICATION_TYPE":"U","PERIAPSIS":"546.721","APOAPSIS":"547.727","COUNTRY_CODE":"US","OBJECT_ID":"2021-027AJ","ELEMENT_SET_NO":"999","EPHEMERIS_TYPE":"0","CENTER_NAME":"EARTH","SEMIMAJOR_AXIS":"6925.359","GP_ID":"233478345","BSTAR":"0.00096288000000","SITE":"AFETR","EPOCH":"2023-06-08T13:27:35.810496"},{"MEAN_MOTION_DOT":"0.00022772","TLE_LINE1":"1 48125U 21027AK  23158.84486572  .00022772  00000-0  15418-2 0  9996","LAUNCH_DATE":"2021-04-07","INCLINATION":"53.0550","OBJECT_NAME":"STARLINK-2466","OBJECT_TYPE":"PAYLOAD","DECAY_DATE":null,"ECCENTRICITY":"0.00011290","ARG_OF_PERICENTER":"96.4929","MEAN_ELEMENT_THEORY":"SGP4","RA_OF_ASC_NODE":"7.2707","NORAD_CAT_ID":"48125","RCS_SIZE":"LARGE","MEAN_MOTION":"15.06423098","MEAN_ANOMALY":"263.6188","REF_FRAME":"TEME","MEAN_MOTION_DDOT":"0.0000000000000","FILE":"3927436","APOAPSIS":"547.925","PERIAPSIS":"546.361","CLASSIFICATION_TYPE":"U","OBJECT_ID":"2021-027AK","ELEMENT_SET_NO":"999","COUNTRY_CODE":"US","TLE_LINE2":"2 48125  53.0550   7.2707 0001129  96.4929 263.6188 15.06423098120819","REV_AT_EPOCH":"12081","PERIOD":"95.591","TIME_SYSTEM":"UTC","SEMIMAJOR_AXIS":"6925.278","EPHEMERIS_TYPE":"0","CENTER_NAME":"EARTH","BSTAR":"0.00154180000000","EPOCH":"2023-06-07T20:16:36.398208","SITE":"AFETR","GP_ID":"233430708"},{"INCLINATION":"53.0564","OBJECT_NAME":"STARLINK-2467","MEAN_MOTION_DOT":"0.00005914","LAUNCH_DATE":"2021-04-07","TLE_LINE1":"1 48126U 21027AL  23159.52857777  .00005914  00000-0  41551-3 0  9999","ECCENTRICITY":"0.00011720","DECAY_DATE":null,"OBJECT_TYPE":"PAYLOAD","ARG_OF_PERICENTER":"77.2785","RA_OF_ASC_NODE":"343.9608","NORAD_CAT_ID":"48126","MEAN_ELEMENT_THEORY":"SGP4","MEAN_MOTION_DDOT":"0.0000000000000","FILE":"3928050","REF_FRAME":"TEME","RCS_SIZE":"LARGE","MEAN_ANOMALY":"282.8334","MEAN_MOTION":"15.06408645","REV_AT_EPOCH":"12079","TLE_LINE2":"2 48126  53.0564 343.9608 0001172  77.2785 282.8334 15.06408645120794","PERIOD":"95.592","TIME_SYSTEM":"UTC","CLASSIFICATION_TYPE":"U","APOAPSIS":"547.999","PERIAPSIS":"546.375","COUNTRY_CODE":"US","OBJECT_ID":"2021-027AL","ELEMENT_SET_NO":"999","EPHEMERIS_TYPE":"0","CENTER_NAME":"EARTH","SEMIMAJOR_AXIS":"6925.322","GP_ID":"233477512","BSTAR":"0.00041551000000","SITE":"AFETR","EPOCH":"2023-06-08T12:41:09.119328"},{"GP_ID":"233478024","BSTAR":"0.00027027000000","SITE":"AFETR","EPOCH":"2023-06-08T14:03:25.486560","EPHEMERIS_TYPE":"0","CENTER_NAME":"EARTH","SEMIMAJOR_AXIS":"6925.340","TLE_LINE2":"2 48127  53.0547   3.7050 0001150  78.5955 281.5163 15.06402916120529","PERIOD":"95.592","REV_AT_EPOCH":"12052","TIME_SYSTEM":"UTC","CLASSIFICATION_TYPE":"U","PERIAPSIS":"546.408","APOAPSIS":"548.001","COUNTRY_CODE":"US","OBJECT_ID":"2021-027AM","ELEMENT_SET_NO":"999","FILE":"3928051","MEAN_MOTION_DDOT":"0.0000000000000","REF_FRAME":"TEME","RCS_SIZE":"LARGE","MEAN_ANOMALY":"281.5163","MEAN_MOTION":"15.06402916","RA_OF_ASC_NODE":"3.7050","NORAD_CAT_ID":"48127","MEAN_ELEMENT_THEORY":"SGP4","ARG_OF_PERICENTER":"78.5955","DECAY_DATE":null,"ECCENTRICITY":"0.00011500","OBJECT_TYPE":"PAYLOAD","INCLINATION":"53.0547","OBJECT_NAME":"STARLINK-2468","MEAN_MOTION_DOT":"0.00003747","LAUNCH_DATE":"2021-04-07","TLE_LINE1":"1 48127U 21027AM  23159.58571165  .00003747  00000-0  27027-3 0  9994"},{"SEMIMAJOR_AXIS":"6925.357","CENTER_NAME":"EARTH","EPHEMERIS_TYPE":"0","EPOCH":"2023-06-08T15:11:07.156608","SITE":"AFETR","BSTAR":"0.00153860000000","GP_ID":"233502516","MEAN_MOTION":"15.06397088","MEAN_ANOMALY":"266.5845","RCS_SIZE":"LARGE","REF_FRAME":"TEME","FILE":"3928201","MEAN_MOTION_DDOT":"0.0000000000000","ELEMENT_SET_NO":"999","OBJECT_ID":"2021-027AN","COUNTRY_CODE":"US","APOAPSIS":"548.153","PERIAPSIS":"546.292","CLASSIFICATION_TYPE":"U","TIME_SYSTEM":"UTC","TLE_LINE2":"2 48128  53.0536 293.5806 0001343  93.5298 266.5845 15.06397088121903","PERIOD":"95.592","REV_AT_EPOCH":"12190","ARG_OF_PERICENTER":"93.5298","MEAN_ELEMENT_THEORY":"SGP4","NORAD_CAT_ID":"48128","RA_OF_ASC_NODE":"293.5806","LAUNCH_DATE":"2021-04-07","TLE_LINE1":"1 48128U 21027AN  23159.63272172  .00022708  00000-0  15386-2 0  9999","MEAN_MOTION_DOT":"0.00022708","OBJECT_NAME":"STARLINK-2469","INCLINATION":"53.0536","OBJECT_TYPE":"PAYLOAD","ECCENTRICITY":"0.00013430","DECAY_DATE":null}];
